{
  "type": "FeatureCollection",
  "features": [
    {
      "type": "Feature",
      "properties": {
        "norad_id": 47036,
        "name": "FENGYUN 1C DEB",
        "group": "fengyun-1c-debris",
        "lat": 56.73490435662766,
        "lon": -139.1982983334921,
        "alt_km": 788.530055964131,
        "timestamp": "2025-12-09T18:55:17.522632+00:00",
        "meta_object_name": "FENGYUN 1C DEB",
        "meta_object_id": "1999-025FBN",
        "meta_epoch": "2025-12-08T08:42:19.355328",
        "meta_mean_motion": 14.15172568,
        "meta_eccentricity": 0.00687855,
        "meta_inclination": 98.7227,
        "meta_ra_of_asc_node": 25.8733,
        "meta_arg_of_pericenter": 109.9906,
        "meta_mean_anomaly": 312.7639,
        "meta_ephemeris_type": 0,
        "meta_classification_type": "U",
        "meta_norad_cat_id": 47036,
        "meta_element_set_no": 999,
        "meta_rev_at_epoch": 59865,
        "meta_bstar": 0.00025817541,
        "meta_mean_motion_dot": 4.7e-06,
        "meta_mean_motion_ddot": 0,
        "tle_line1": "1 47036U 99025FBN 25342.36272402  .00000470  00000+0  25818-3 0  9994",
        "tle_line2": "2 47036  98.7227  25.8733 0068785 109.9906 312.7639 14.15172568598657"
      },
      "geometry": {
        "type": "Point",
        "coordinates": [
          -139.1982983334921,
          56.73490435662766
        ]
      }
    },
    {
      "type": "Feature",
      "properties": {
        "norad_id": 47040,
        "name": "FENGYUN 1C DEB",
        "group": "fengyun-1c-debris",
        "lat": 0.3931157671607817,
        "lon": -109.92237016332068,
        "alt_km": 896.6164580491095,
        "timestamp": "2025-12-09T18:55:17.522642+00:00",
        "meta_object_name": "FENGYUN 1C DEB",
        "meta_object_id": "1999-025FBS",
        "meta_epoch": "2025-12-03T10:58:10.539552",
        "meta_mean_motion": 14.06462065,
        "meta_eccentricity": 0.0063058,
        "meta_inclination": 100.2943,
        "meta_ra_of_asc_node": 242.958,
        "meta_arg_of_pericenter": 257.8027,
        "meta_mean_anomaly": 101.6069,
        "meta_ephemeris_type": 0,
        "meta_classification_type": "U",
        "meta_norad_cat_id": 47040,
        "meta_element_set_no": 999,
        "meta_rev_at_epoch": 88978,
        "meta_bstar": 0.0008721929,
        "meta_mean_motion_dot": 1.412e-05,
        "meta_mean_motion_ddot": 0,
        "tle_line1": "1 47040U 99025FBS 25337.45706643  .00001412  00000+0  87219-3 0  9992",
        "tle_line2": "2 47040 100.2943 242.9580 0063058 257.8027 101.6069 14.06462065889786"
      },
      "geometry": {
        "type": "Point",
        "coordinates": [
          -109.92237016332068,
          0.3931157671607817
        ]
      }
    },
    {
      "type": "Feature",
      "properties": {
        "norad_id": 47041,
        "name": "FENGYUN 1C DEB",
        "group": "fengyun-1c-debris",
        "lat": -65.51491918421253,
        "lon": 28.686405177937257,
        "alt_km": 554.3814714324071,
        "timestamp": "2025-12-09T18:55:17.522652+00:00",
        "meta_object_name": "FENGYUN 1C DEB",
        "meta_object_id": "1999-025FBT",
        "meta_epoch": "2025-12-08T20:05:55.973760",
        "meta_mean_motion": 15.0681887,
        "meta_eccentricity": 0.00145382,
        "meta_inclination": 98.256,
        "meta_ra_of_asc_node": 9.075,
        "meta_arg_of_pericenter": 197.9452,
        "meta_mean_anomaly": 339.6903,
        "meta_ephemeris_type": 0,
        "meta_classification_type": "U",
        "meta_norad_cat_id": 47041,
        "meta_element_set_no": 999,
        "meta_rev_at_epoch": 71130,
        "meta_bstar": 0.0026611213,
        "meta_mean_motion_dot": 0.00039871,
        "meta_mean_motion_ddot": 0,
        "tle_line1": "1 47041U 99025FBT 25342.83745340  .00039871  00000+0  26611-2 0  9996",
        "tle_line2": "2 47041  98.2560   9.0750 0014538 197.9452 339.6903 15.06818870711306"
      },
      "geometry": {
        "type": "Point",
        "coordinates": [
          28.686405177937257,
          -65.51491918421253
        ]
      }
    },
    {
      "type": "Feature",
      "properties": {
        "norad_id": 47042,
        "name": "FENGYUN 1C DEB",
        "group": "fengyun-1c-debris",
        "lat": 39.47378822593273,
        "lon": 68.72898670210664,
        "alt_km": 817.3059841119557,
        "timestamp": "2025-12-09T18:55:17.522662+00:00",
        "meta_object_name": "FENGYUN 1C DEB",
        "meta_object_id": "1999-025FBU",
        "meta_epoch": "2025-12-08T23:46:33.824928",
        "meta_mean_motion": 14.22828357,
        "meta_eccentricity": 0.0055479,
        "meta_inclination": 99.0007,
        "meta_ra_of_asc_node": 240.4137,
        "meta_arg_of_pericenter": 45.2205,
        "meta_mean_anomaly": 330.1771,
        "meta_ephemeris_type": 0,
        "meta_classification_type": "U",
        "meta_norad_cat_id": 47042,
        "meta_element_set_no": 999,
        "meta_rev_at_epoch": 62468,
        "meta_bstar": 0.00040267,
        "meta_mean_motion_dot": 8.72e-06,
        "meta_mean_motion_ddot": 0,
        "tle_line1": "1 47042U 99025FBU 25342.99066927  .00000872  00000+0  40267-3 0  9994",
        "tle_line2": "2 47042  99.0007 240.4137 0055479  45.2205 330.1771 14.22828357624683"
      },
      "geometry": {
        "type": "Point",
        "coordinates": [
          68.72898670210664,
          39.47378822593273
        ]
      }
    },
    {
      "type": "Feature",
      "properties": {
        "norad_id": 47100,
        "name": "FENGYUN 1C DEB",
        "group": "fengyun-1c-debris",
        "lat": -37.745765038373385,
        "lon": 170.16349341832571,
        "alt_km": 679.286103041447,
        "timestamp": "2025-12-09T18:55:17.522672+00:00",
        "meta_object_name": "FENGYUN 1C DEB",
        "meta_object_id": "1999-025FBY",
        "meta_epoch": "2025-12-09T10:49:19.098336",
        "meta_mean_motion": 14.51345237,
        "meta_eccentricity": 0.00893058,
        "meta_inclination": 99.0205,
        "meta_ra_of_asc_node": 162.7375,
        "meta_arg_of_pericenter": 3.5031,
        "meta_mean_anomaly": 356.6768,
        "meta_ephemeris_type": 0,
        "meta_classification_type": "U",
        "meta_norad_cat_id": 47100,
        "meta_element_set_no": 999,
        "meta_rev_at_epoch": 26720,
        "meta_bstar": 0.0024751612,
        "meta_mean_motion_dot": 0.00010344,
        "meta_mean_motion_ddot": 0,
        "tle_line1": "1 47100U 99025FBY 25343.45091549  .00010344  00000+0  24752-2 0  9994",
        "tle_line2": "2 47100  99.0205 162.7375 0089305   3.5031 356.6768 14.51345237267200"
      },
      "geometry": {
        "type": "Point",
        "coordinates": [
          170.16349341832571,
          -37.745765038373385
        ]
      }
    },
    {
      "type": "Feature",
      "properties": {
        "norad_id": 47104,
        "name": "FENGYUN 1C DEB",
        "group": "fengyun-1c-debris",
        "lat": -53.24565320732247,
        "lon": -178.79990920446915,
        "alt_km": 844.9450896816043,
        "timestamp": "2025-12-09T18:55:17.522682+00:00",
        "meta_object_name": "FENGYUN 1C DEB",
        "meta_object_id": "1999-025FCC",
        "meta_epoch": "2025-12-05T07:14:15.762912",
        "meta_mean_motion": 14.19416271,
        "meta_eccentricity": 0.00406545,
        "meta_inclination": 98.9092,
        "meta_ra_of_asc_node": 8.8127,
        "meta_arg_of_pericenter": 358.5803,
        "meta_mean_anomaly": 1.5251,
        "meta_ephemeris_type": 0,
        "meta_classification_type": "U",
        "meta_norad_cat_id": 47104,
        "meta_element_set_no": 999,
        "meta_rev_at_epoch": 62267,
        "meta_bstar": 0.00037828604,
        "meta_mean_motion_dot": 7.57e-06,
        "meta_mean_motion_ddot": 0,
        "tle_line1": "1 47104U 99025FCC 25339.30157133  .00000757  00000+0  37829-3 0  9996",
        "tle_line2": "2 47104  98.9092   8.8127 0040654 358.5803   1.5251 14.19416271622675"
      },
      "geometry": {
        "type": "Point",
        "coordinates": [
          -178.79990920446915,
          -53.24565320732247
        ]
      }
    }
  ]
}